,Unnamed: 0,address,description,postal_code,lat,lon,square_lat,square_lon
0,0,"50 JURONG GATEWAY ROAD, JEM, #04-30","Bin collection; E-waste accepted: ICT equipment, Batteries and Lamps only",608549,1.33320021038331,103.743170436292,6,8
1,1,4 TAMPINES CENTRAL 5,"Bin collection; E-waste accepted: ICT equipment, Batteries and Lamps only",529510,1.35267231590699,103.944387987324,7,19
2,2,230 VICTORIA STREET,"Bin collection; E-waste accepted: ICT equipment, Batteries and Lamps only",188024,1.29981638982486,103.855923563242,4,14
3,3,"50 JURONG GATEWAY RD, JEM, #B1-21/22 & #B3-01","Bin collection; E-waste accepted: ICT equipment, Batteries and Lamps only",608549,1.33320021038331,103.743170436292,6,8
4,4,2 JURONG EAST STREET 21,"Bin collection; E-waste accepted: ICT equipment, Batteries and Lamps only",609601,1.33489843717476,103.7467344968,6,8
5,5,2 JURONG EAST CENTRAL 1,"Bin collection; E-waste accepted: ICT equipment, Batteries and Lamps only",609731,1.33333039944934,103.740167234363,6,8
6,6,602 JURONG WEST ST 65,"Bin collection; E-waste accepted: ICT equipment, Batteries and Lamps only",640602,1.33925339612415,103.700219203285,6,6
7,7,"21 CHOA CHU KANG AVE 4, WALKWAY BESIDE MCDONALD'S","Bin collection; E-waste accepted: ICT equipment, Batteries and Lamps only",689812,1.38506835667563,103.744950384161,8,8
8,8,101 CANTONMENT ROAD,"Bin collection; E-waste accepted: ICT equipment, Batteries and Lamps only",89774,1.27616698002633,103.841584210034,3,14
9,9,1 HARBOURFRONT PLACE,"Bin collection; E-waste accepted: ICT equipment, Batteries and Lamps only",98633,1.26499758815146,103.81902706845,2,12
10,10,1 MARITIME SQUARE,"Bin collection; E-waste accepted: ICT equipment, Batteries and Lamps only",99253,1.26206336420704,103.818732565555,2,12
11,11,298 TIONG BAHRU ROAD,"Bin collection; E-waste accepted: ICT equipment, Batteries and Lamps only",168730,1.28630852981463,103.828004847991,3,13
12,12,93 TOA PAYOH CENTRAL,"Bin collection; E-waste accepted: ICT equipment, Batteries and Lamps only",319194,1.33493451709456,103.850204545922,6,14
13,13,1999 LORONG 8 TOA PAYOH,"Bin collection; E-waste accepted: ICT equipment, Batteries and Lamps only",319258,1.33489037046643,103.859378979813,6,15
14,14,160 LORONG 6 TOA PAYOH,"Bin collection; E-waste accepted: ICT equipment, Batteries and Lamps only",319380,1.33627489206396,103.85470024903,6,14
15,15,51 HOUGANG AVENUE 9,"Bin collection; E-waste accepted: ICT equipment, Batteries and Lamps only",538776,1.37514897825787,103.882894179307,8,16
16,16,35 HOUGANG AVENUE 3,"Bin collection; E-waste accepted: ICT equipment, Batteries and Lamps only",538840,1.36475743233025,103.892622240184,7,16
17,17,"ANG MO KIO AVENUE 3, ANG MOH KIO HUB, #B1-58","Bin collection; E-waste accepted: ICT equipment, Batteries and Lamps only",569933,1.3692489128202,103.848399227484,7,14
18,18,SIN MING AVE,"Bin collection; E-waste accepted: ICT equipment, Batteries and Lamps only",575738,1.36213756796576,103.8412861742,7,14
19,19,1 WOODLANDS SQUARE,"Bin collection; E-waste accepted: ICT equipment, Batteries and Lamps only",738099,1.43600784517148,103.785688739235,11,11
20,20,"80 MARINE PARADE ROAD, PARKWAY PARADE, #3-29","Bin collection; E-waste accepted: ICT equipment, Batteries and Lamps only",449269,1.30119130748691,103.905113592255,4,17
21,21,192 TOA PAYOH LORONG 4,"Bin collection; E-waste accepted: ICT equipment, Batteries and Lamps only",310192,1.33166814039843,103.850487239152,6,14
22,22,710A ANG MO KIO AVE 8,"Bin collection; E-waste accepted: ICT equipment, Batteries and Lamps only",561710,1.37060311973576,103.847944283348,7,14
23,23,"2 JURONG EAST STREET 21, IMM, #2-23","Bin collection; E-waste accepted: ICT equipment, Batteries and Lamps only",609601,1.33489843717476,103.7467344968,6,8
24,24,"1 HARBOURFRONT WALK, VIVOCITY, #2-34","Bin collection; E-waste accepted: ICT equipment, Batteries and Lamps only",98585,1.2638958023183,103.821589254908,2,13
25,25,"3 SIMEI STREET 6, EASTPOINT MALL, #04-07","Bin collection; E-waste accepted: ICT equipment, Batteries and Lamps only",528833,1.34270618643901,103.953024503826,6,20
26,26,"21 TAMPINES NORTH DRIVE 2, GIANT HYPERMART TAMPINES, #03-01",Bin collection; E-waste accepted: Batteries and Lamps only,528765,1.37210169627783,103.931999887749,8,19
27,27,"799 NEW UPPER CHANGI ROAD, BEDOK POINT, #B1-01/02, #B-16/2 AND #B1-K1/K14","Bin collection; E-waste accepted: ICT equipment, Batteries and Lamps only",467351,1.32496142341112,103.932360135904,5,19
28,28,"1 JELEBU ROAD, BUKIT PANJANG PLAZA, #03-06","Bin collection; E-waste accepted: ICT equipment, Batteries and Lamps only",677743,1.38051732815914,103.763961852618,8,9
29,29,"5 ANG MO KIO CENTRAL 3, DJITSUN MALL, #2-1","Bin collection; E-waste accepted: ICT equipment, Batteries and Lamps only",569663,1.37285425440227,103.847607917674,8,14
30,30,"9 RAFFLES BOULEVARD, MILLENIA WALK, #02-27","Bin collection; E-waste accepted: ICT equipment, Batteries and Lamps only",39596,1.29296503959681,103.85934397868,4,15
31,31,"21 CHOA CHU KANG NORTH 6, YEW TEE POINT, #B1-01",Bin collection; E-waste accepted: Batteries and Lamps only,689578,1.39730190406931,103.746558072887,9,8
32,32,"BLK 135 JURONG GATEWAY RD, #01-337",Bin collection; E-waste accepted: Batteries and Lamps only,600135,1.33375343199036,103.739371389964,6,8
33,33,"2 BUKIT BATOK WEST AVE 7, HOMETEAM NS BUKIT BATOK CLUBHOUSE, #01-10",Bin collection; E-waste accepted: Batteries and Lamps only,659003,1.36650698454332,103.746847120427,7,8
34,34,"1 BUKIT BATOK CENTRAL LINK, WEST MALL, #03-06 TO 09","Bin collection; E-waste accepted: ICT equipment, Batteries and Lamps only",658713,1.35018915982967,103.749021980031,6,8
35,35,"3 GATEWAY DRIVE, WESTGATE, #B1-32","Bin collection; E-waste accepted: ICT equipment, Batteries and Lamps only",608532,1.33402528745454,103.742586017746,6,8
36,36,"5 STADIUM WALK, KALLANG LEISURE PARK, #01-46-50","Bin collection; E-waste accepted: ICT equipment, Batteries and Lamps only",397693,1.30222177114752,103.876152670397,4,16
37,37,4000 JALAN BUKIT MERAH,"Bin collection; E-waste accepted: ICT equipment, Batteries and Lamps only",159465,1.28525426592061,103.815828543116,3,12
38,38,8 PENDING ROAD,"Bin collection; E-waste accepted: ICT equipment, Batteries and Lamps only",678295,1.37645074924612,103.77055880601,8,10
39,39,220 CLEMENTI AVENUE 4,"Bin collection; E-waste accepted: ICT equipment, Batteries and Lamps only",129880,1.31881518814763,103.768153686645,5,10
40,40,170 GHIM MOH ROAD,"Bin collection; E-waste accepted: ICT equipment, Batteries and Lamps only",279621,1.31200940949362,103.789211186001,5,11
41,41,2 CLEMENTI WEST STREET 2,"Bin collection; E-waste accepted: ICT equipment, Batteries and Lamps only",129605,1.30264555979077,103.764832077473,4,9
42,42,90 BOON LAY WAY,"Bin collection; E-waste accepted: ICT equipment, Batteries and Lamps only",609958,1.33997285278881,103.737065915264,6,8
43,43,"10 PASIR PANJANG ROAD, CLUNY COURT","Bin collection; E-waste accepted: ICT equipment, Batteries and Lamps only",117438,1.27494101471276,103.798931949053,3,11
44,44,1 ENGKU AMAN TURN,"Bin collection; E-waste accepted: ICT equipment, Batteries and Lamps only",408528,1.3164501683615,103.89659695323,5,17
45,45,"2 SIMEI STREET 3, ADMIRALTY PLACE","Bin collection; E-waste accepted: ICT equipment, Batteries and Lamps only",529889,1.34068473973667,103.949294393687,6,20
46,46,"385 BEACH ROAD, KAMPONG GLAM CC","Bin collection; E-waste accepted: ICT equipment, Batteries and Lamps only",199581,1.30279521839327,103.863597858268,4,15
47,47,"4 QUEENâ€™S ROAD, FARRER GARDENS RC","Bin collection; E-waste accepted: ICT equipment, Batteries and Lamps only",260004,1.31883225067726,103.808061968709,5,12
48,48,"116 HOUGANG AVENUE 1, PAYA LEBAR ZONE 5 RC, #01-1206","Bin collection; E-waste accepted: ICT equipment, Batteries and Lamps only",530116,1.35313871558187,103.887727364285,7,16
49,49,"653A JURONG WEST ST 61, PIONEER ZONE 12 RN, #01-422","Bin collection; E-waste accepted: ICT equipment, Batteries and Lamps only",641653,1.33689136709064,103.696638818729,6,6
50,50,"20 CHOA CHU KANG STREET 52, YEW TEE CC","Bin collection; E-waste accepted: ICT equipment, Batteries and Lamps only",689286,1.39491758447052,103.744727853367,9,8
51,51,"353 WOODLANDS AVENUE 1, WOODGROVE CC","Bin collection; E-waste accepted: ICT equipment, Batteries and Lamps only",730353,1.43177102177052,103.785006866148,10,10
52,52,"BLK 4 WOODLANDS STREET 12, #02-61",Bin collection; E-waste accepted: Batteries and Lamps only,738623,1.43351252898231,103.779746868505,11,10
53,53,"57 DAWSON RD, DAWSON PLACE","Bin collection; E-waste accepted: ICT equipment, Batteries and Lamps only",142057,1.2927033928985,103.81095896399,4,12
54,54,"54 CHIN SWEE ROAD HDB-CENTRAL AREA, 54 CHIN SWEE RD","Bin collection; E-waste accepted: ICT equipment, Batteries and Lamps only",160054,1.28738855750969,103.841152117124,3,14
55,55,"809 FRENCH ROAD, KITCHENER COMPLEX","Bin collection; E-waste accepted: ICT equipment, Batteries and Lamps only",200808,1.30880609288659,103.861311962893,4,15
56,56,"238 THOMSON ROAD, NOVENA SQUARE","Bin collection; E-waste accepted: ICT equipment, Batteries and Lamps only",307683,1.32021099973819,103.843656770909,5,14
57,57,"6 LORONG TOA PAYOH, HDB HUB","Bin collection; E-waste accepted: ICT equipment, Batteries and Lamps only",310480,1.33214111914629,103.848326054144,6,14
58,58,"70 GEYLANG BAHRU, 70 GEYLANG BAHRU","Bin collection; E-waste accepted: ICT equipment, Batteries and Lamps only",330070,1.32188556778471,103.870318570635,5,15
59,59,"121 POTONG PASIR AVENUE, HDB-POTONG PASIR","Bin collection; E-waste accepted: ICT equipment, Batteries and Lamps only",350121,1.33576029121741,103.865597002044,6,15
60,60,"60 PAYA LEBAR RD, PAYA LEBAR SQUARE","Bin collection; E-waste accepted: ICT equipment, Batteries and Lamps only",409051,1.3186757503745,103.892550607124,5,16
61,61,"259 PASIR RIS STREET 21, LOYANG POINT","Bin collection; E-waste accepted: ICT equipment, Batteries and Lamps only",510258,1.36700053783377,103.964617781926,7,20
62,62,"623 ELIAS ROAD, ELIAS MALL","Bin collection; E-waste accepted: ICT equipment, Batteries and Lamps only",510623,1.37790945286479,103.942281486106,8,19
63,63,"735 PASIR RIS STREET 72, PASIR RIS WEST PLAZA","Bin collection; E-waste accepted: ICT equipment, Batteries and Lamps only",510735,1.37930651729418,103.936272108833,8,19
64,64,"118 RIVERVALE DRIVE, RIVERVALE PLAZA","Bin collection; E-waste accepted: ICT equipment, Batteries and Lamps only",540118,1.38493202032929,103.901558027564,8,17
65,65,"1 JALAN ANAK BUKIT BUKIT TIMAH PLAZA, BUKIT TIMAH PLAZA","Bin collection; E-waste accepted: ICT equipment, Batteries and Lamps only",588996,1.33865676913061,103.778560470199,6,10
66,66,"399 YUNG SHENG ROAD, TAMAN JURONG SHOPPING CENTRE","Bin collection; E-waste accepted: ICT equipment, Batteries and Lamps only",610399,1.335042021408,103.720268024233,6,7
67,67,"638 JURONG WEST STREET 61, PIONEER MALL","Bin collection; E-waste accepted: ICT equipment, Batteries and Lamps only",640638,1.34159107979646,103.69702008582,6,6
68,68,"762 JURONG WEST STREET 75, GEK POH SHOPPING CENTRE","Bin collection; E-waste accepted: ICT equipment, Batteries and Lamps only",640762,1.34874357157007,103.697732094253,6,6
69,69,"445 FARJAR ROAD, FAJAR SHOPPING CENTRE","Bin collection; E-waste accepted: ICT equipment, Batteries and Lamps only",670445,1.38358044141429,103.770768312339,8,10
70,70,"524A JELAPANG ROAD, GREENRIDGE SHOPPING CENTRE","Bin collection; E-waste accepted: ICT equipment, Batteries and Lamps only",671524,1.38529556520099,103.766170532015,8,9
71,71,"624 CHOA CHU KANG STREET 62, YEW TEE SQUARE","Bin collection; E-waste accepted: ICT equipment, Batteries and Lamps only",680622,1.3982771941105,103.747182456762,9,8
72,72,"768 WOODLANDS AVENUE 6, WOODLANDS MART","Bin collection; E-waste accepted: ICT equipment, Batteries and Lamps only",730768,1.44575077511561,103.798119771491,11,11
73,73,"888 WOODLANDS DRIVE 50, 888 PLAZA","Bin collection; E-waste accepted: ICT equipment, Batteries and Lamps only",730888,1.43767919710846,103.795136736247,11,11
74,74,"511 CANBERRA ROAD, SEMBAWANG MART","Bin collection; E-waste accepted: ICT equipment, Batteries and Lamps only",750511,1.45384518348657,103.819543348907,12,12
75,75,"10 PAYA LEBAR ROAD, PAYA LEBAR QUARTER (PLQ)","Bin collection; E-waste accepted: ICT equipment, Batteries and Lamps only",409057,1.31752384126856,103.892724434212,5,16
76,76,"110 RIVERVALE WALK, RIVERVALE COURT RC","Bin collection; E-waste accepted: ICT equipment, Batteries and Lamps only",540110,1.38349233371644,103.900312365788,8,17
77,77,"135 RIVERVALE STREET, RIVERVALE SPRING RC, #01-730","Bin collection; E-waste accepted: ICT equipment, Batteries and Lamps only",540135,1.38814105023846,103.905022045791,8,17
78,78,"188B RIVERVALE DRIVE, RIVERVALE VISTA RC, 01-1076","Bin collection; E-waste accepted: ICT equipment, Batteries and Lamps only",542188,1.39454067766739,103.905458978888,9,17
79,79,"201B COMPASSVALE DRIVE, COMPASSVALE SOUTHGATE RC, #01-545","Bin collection; E-waste accepted: ICT equipment, Batteries and Lamps only",542201,1.38831310758384,103.893923648496,8,17
80,80,"180C RIVERVALE CRESCENT, RIVERVALE ARC RC, #01-367","Bin collection; E-waste accepted: ICT equipment, Batteries and Lamps only",543180,1.38949149935928,103.909660431254,8,17
81,81,"206C COMPASSVALE LANE, COMPASSVALE VILLA RC","Bin collection; E-waste accepted: ICT equipment, Batteries and Lamps only",543206,1.38681828916719,103.8975474119,8,17
82,82,"59 ANCHORVALE ROAD, ANCHORVALE COMMUNITY CLUB","Bin collection; E-waste accepted: ICT equipment, Batteries and Lamps only",544965,1.39712791773438,103.886665684716,9,16
83,83,"602 PUNGGOL CENTRAL, PUNGGOL VISTA CC","Bin collection; E-waste accepted: ICT equipment, Batteries and Lamps only",820602,1.40328429076968,103.907288602075,9,17
84,84,"176C EDGEFIELD PLAINS, PUNGGOL OASIS RC, #01-569","Bin collection; E-waste accepted: ICT equipment, Batteries and Lamps only",821175,1.39740420680146,103.908973751235,9,17
85,85,"204A  204A PUNGGOL FIELD, PUNGGOL CLOVER RN, #01-288","Bin collection; E-waste accepted: ICT equipment, Batteries and Lamps only",821204,1.39877826808137,103.902910898023,9,17
86,86,"259C PUNGGOL FIELD, PUNGGOL WEST CC","Bin collection; E-waste accepted: ICT equipment, Batteries and Lamps only",823259,1.40451590068484,103.89566486383,9,17
87,87,"268D PUNGGOL FIELD, PUNGGOL SAPPHIRALD RN, #01-173","Bin collection; E-waste accepted: ICT equipment, Batteries and Lamps only",824268,1.40331377225975,103.898358930385,9,17
88,88,"991 BUANGKOK LINK, LEVEL 1","Bin collection; E-waste accepted: ICT equipment, Batteries and Lamps only",530991,1.3843342640345,103.881623077407,8,16
89,89,"1 JURONG WEST ST 71, SECURITY GUARD POST","Bin collection; E-waste accepted: ICT equipment, Batteries and Lamps only",642648,1.33838768620432,103.698192624513,6,6
90,90,"548 WOODLANDS DRIVE 44, LEVEL 1","Bin collection; E-waste accepted: ICT equipment, Batteries and Lamps only",730548,1.43084006633629,103.793416336246,10,11
91,91,"133 CANBERRA VIEW, LEVEL 1","Bin collection; E-waste accepted: ICT equipment, Batteries and Lamps only",750133,1.44349544002733,103.830345370073,11,13
92,92,"30 HENG MUI KENG TERRACE, LEVEL 1","Bin collection; E-waste accepted: ICT equipment, Batteries and Lamps only",119614,1.29125963881342,103.776679540457,4,10
93,93,"810 GEYLANG RD, LEVEL 1","Bin collection; E-waste accepted: ICT equipment, Batteries and Lamps only",409286,1.31495729637934,103.893400329176,5,17
94,94,"477A UPPER SERANGOON VIEW, LEVEL 1","Bin collection; E-waste accepted: ICT equipment, Batteries and Lamps only",531477,1.37830875828283,103.903841964129,8,17
95,95,"260 ANG MO KIO STREET 21, #01-06","Bin collection; E-waste accepted: ICT equipment, Batteries and Lamps only",560260,1.36891616406036,103.834499527161,7,13
96,96,"312B SUMANG LINK, #01-171","Bin collection; E-waste accepted: ICT equipment, Batteries and Lamps only",823312,1.41090728243885,103.901186083679,9,17
97,97,252 NORTH BRIDGE RD,"Bin collection; E-waste accepted: ICT equipment, Batteries and Lamps only",179103,1.29376027875418,103.852768332387,4,14
98,98,"930 YISHUN AVE 2, #03-90/10","Bin collection; E-waste accepted: ICT equipment, Batteries and Lamps only",769098,1.42969847969486,103.835776496688,10,13
99,99,"252 NORTH BRIDGE RD, #03-22/23","Bin collection; E-waste accepted: ICT equipment, Batteries and Lamps only",179103,1.29376027875418,103.852768332387,4,14
100,100,"TANJONG PAGAR PLAZA, #01-01",Bin collection; E-waste accepted: Batteries and Lamps only,82001,1.27559619005356,103.842393168675,3,14
101,101,"166 BUKIT MERAH CENTRAL, #01-3531 & 02-3531",Bin collection; E-waste accepted: Batteries and Lamps only,150166,1.28311949644729,103.817642874205,3,12
102,102,"BLK 57 DAWSON RD, DAWSON PLACE, #01-07",Bin collection; E-waste accepted: Batteries and Lamps only,142057,1.2927033928985,103.81095896399,4,12
103,103,"BLK 50 HAVELOCK RD, BLK 50 HAVELOCK RD, #01-755",Bin collection; E-waste accepted: Batteries and Lamps only,160050,1.2897781328001,103.82679375163,4,13
104,104,"460 ALEXANDRA RD, 460 ALEXANDRA RD, #01-09 AND #01-16",Bin collection; E-waste accepted: Batteries and Lamps only,119963,1.27367657754603,103.801126950046,3,11
105,105,"1 LOWER KENT RIDGE RD, NUH MEDICAL CENTRE, #02-16",Bin collection; E-waste accepted: Batteries and Lamps only,119082,1.2927743133923,103.784084015695,4,10
106,106,"80 PUNGGOL FIELD, PUNGGOL 21 CC","Bin collection; E-waste accepted: ICT equipment, Batteries and Lamps only",828815,1.39360624159956,103.913464113125,9,18
107,107,"163 TANGLIN ROAD, TANGLIN MALL, #B1-01",Bin collection; E-waste accepted: Batteries and Lamps only,247933,1.30484343221316,103.823852800985,4,13
108,108,"313 ORCHARD ROAD, 313 SOMERSET, #02-28",Manned collection; E-waste accepted: ICT equipment and Batteries only,238895,1.30138509490103,103.837684358423,4,13
109,109,"435 ORCHARD ROAD, WISMA ATRIA, #03-01",Manned collection; E-waste accepted: ICT equipment and Batteries only,238877,1.30369890150462,103.833189600965,4,13
110,110,"23 SERANGOON CENTRAL, NEX, #03-21",Manned collection; E-waste accepted: ICT equipment and Batteries only,556083,1.35043817177432,103.87170454945,6,15
111,111,"68 ORCHARD ROAD, STAHUB @ PLAZA SING, #1-36",Manned collection; E-waste accepted: ICT equipment and Batteries only,238839,1.30074770847155,103.845047580881,4,14
112,112,"4 TAMPINES CENTRAL 5, STARHUB @ TAMPINES, #2-27",Manned collection; E-waste accepted: ICT equipment and Batteries only,529510,1.35267231590699,103.944387987324,7,19
113,113,"23 SERANGOON CENTRAL, NEX, #B1-56",Manned collection; E-waste accepted: ICT equipment and Batteries only,556083,1.35043817177432,103.87170454945,6,15
114,114,"2 JURONG EAST STREET 21, IMM, #01-53",Manned collection; E-waste accepted: ICT equipment and Batteries only,609601,1.33489843717476,103.7467344968,6,8
115,115,"1 BUKIT BATOK CENTRAL LINK, WEST MALL, #01-16",Manned collection; E-waste accepted: ICT equipment and Batteries only,658713,1.35018915982967,103.749021980031,6,8
116,116,"1 RAFFLES PLACE, ONE RAFFLES PLACE, #02-25",Manned collection; E-waste accepted: ICT equipment and Batteries only,48616,1.28433993485695,103.850982351781,3,14
117,117,"290 ORCHARD ROAD, THE PARAGON, #04-31",Manned collection; E-waste accepted: ICT equipment and Batteries only,238859,1.30372321372467,103.835240310126,4,13
118,118,"4 TAMPINES CENTRAL 5, TAMPINES MALL, #03-01",Manned collection; E-waste accepted: ICT equipment and Batteries only,529510,1.35267231590699,103.944387987324,7,19
119,119,"1 WOODLANDS SQUARE, CAUSEWAY POINT, #03-01",Manned collection; E-waste accepted: ICT equipment and Batteries only,738099,1.43600784517148,103.785688739235,11,11
120,120,"80 MIDDLE ROAD, BUGIS JUNCTION, #01-81",Manned collection; E-waste accepted: ICT equipment and Batteries only,188966,1.29846962637,103.854867046362,4,14
121,121,"80 MARINE PARADE ROAD, PARKWAY PARADE, #02-24",Manned collection; E-waste accepted: ICT equipment and Batteries only,449269,1.30119130748691,103.905113592255,4,17
122,122,"3 FUSIONOPOLIS WAY, BASEMENT 2 CONNEXIS","Bin collection; E-waste accepted: ICT equipment, Batteries and Lamps only",138633,1.29901131909216,103.787567251574,4,11
123,123,"80 BENCOOLEN STREET, LEVEL 1 WING A","Bin collection; E-waste accepted: ICT equipment, Batteries and Lamps only",189655,1.29946332963088,103.851185944181,4,14
124,124,11 RHU CROSS,"Bin collection; E-waste accepted: ICT equipment, Batteries and Lamps only",437440,1.29499327834417,103.866775484716,4,15
125,125,100 YUAN CHING RD,"Bin collection; E-waste accepted: ICT equipment, Batteries and Lamps only",618662,1.33935955388184,103.727299471215,6,7
126,126,"674A, JURONG WEST STREET 65, #01-66","Bin collection; E-waste accepted: ICT equipment, Batteries and Lamps only",641674,1.34446132877907,103.702315285031,6,6
127,127,218D BOON LAY AVE #01-309,"Bin collection; E-waste accepted: ICT equipment, Batteries and Lamps only",640218,1.350218607854,103.710255719064,6,6
128,128,"5 PINE CLOSE, #01-141","Bin collection; E-waste accepted: ICT equipment, Batteries and Lamps only",391005,1.30704305553309,103.882688424945,4,16
129,129,"55 NEWTON RD, LEVEL 2","Bin collection; E-waste accepted: ICT equipment, Batteries and Lamps only",307987,1.3194895845632,103.841975318466,5,14
130,130,512 THOMSON ROAD MSF BUILDING LOBBY,"Bin collection; E-waste accepted: ICT equipment, Batteries and Lamps only",298136,1.3336652631755,103.839419161507,6,14
131,131,"51 NEW UPPER CHANGI ROAD, #01-1500","Bin collection; E-waste accepted: ICT equipment, Batteries and Lamps only",461051,1.32342985595863,103.942269412202,5,19
132,132,"71 BEDOK SOUTH ROAD, #01-250","Bin collection; E-waste accepted: ICT equipment, Batteries and Lamps only",460071,1.32041601686604,103.942732315687,5,19
133,133,"167 BEDOK SOUTH AVE 3, #01-501","Bin collection; E-waste accepted: ICT equipment, Batteries and Lamps only",460167,1.3196396832799,103.944965235932,5,19
134,134,"133 NEW BRIDGE ROAD, #06-01","Bin collection; E-waste accepted: ICT equipment, Batteries and Lamps only",59413,1.28499882771298,103.844697085395,3,14
135,135,200 LORONG 2 TOA PAYOH,"Bin collection; E-waste accepted: ICT equipment, Batteries and Lamps only",319642,1.3353827124599,103.844830875826,6,14
136,136,"232 TAMPINES STREET 21, #01-639","Bin collection; E-waste accepted: ICT equipment, Batteries and Lamps only",521232,1.35641019022249,103.948701743616,7,20
137,137,"1 WEST COAST DRIVE, #01-111","Bin collection; E-waste accepted: ICT equipment, Batteries and Lamps only",128020,1.31641320903159,103.757451264505,5,9
138,138,3024A UBI RD 1,"Bin collection; E-waste accepted: ICT equipment, Batteries and Lamps only",408718,1.32985965145243,103.896058169727,5,17
139,139,"BEDOK INDUSTRIAL PARK E, PAVILION","Bin collection; E-waste accepted: ICT equipment, Batteries and Lamps only",489978,1.33674833674262,103.949900396416,6,20
140,140,"166 BUKIT MERAH CENTRAL, #03-3527","Bin collection; E-waste accepted: ICT equipment, Batteries and Lamps only",150166,1.28311949644729,103.817642874205,3,12
141,141,"108 BUKIT PURMEI ROAD, #01-129","Bin collection; E-waste accepted: ICT equipment, Batteries and Lamps only",90108,1.27337412903551,103.825328122484,3,13
142,142,"168 JALAN BUKIT MARAH, SURBANA ONE, LEVEL 1","Bin collection; E-waste accepted: ICT equipment, Batteries and Lamps only",150169,1.28331721051266,103.818863113389,3,12
143,143,"BLK 108 DEPOT RD, DEPOT HEIGHTS SHOPPING CENTRE, #01-01",Bin collection; E-waste accepted: Batteries and Lamps only,100108,1.28112226404962,103.810031318703,3,12
144,144,"BLK 36 HOLLAND DR, BLK 36 HOLLAND DR, #01-03/04/05",Bin collection; E-waste accepted: Batteries and Lamps only,270036,1.30925871460611,103.792619417011,4,11
145,145,"BLK 28 DOVER CRESCENT, BLK 28 DOVER CRESCENT, #01-83",Bin collection; E-waste accepted: Batteries and Lamps only,130028,1.30476356255085,103.781697209464,4,10
146,146,"BLK 451 CLEMENTI AVE 3, BLK 451 AVE 3, #01-307",Bin collection; E-waste accepted: Batteries and Lamps only,120451,1.31248108236843,103.765476504358,5,9
147,147,"BLK 399 YUNG SHENG RD, TAMAN JURONG SHOPPING CENTRE, #01-35",Bin collection; E-waste accepted: Batteries and Lamps only,610399,1.335042021408,103.720268024233,6,7
148,148,"BLK 63/66 YUNG KUANG RD, BLK 66 YUNG KANG RD, #01-119 AND #02-119",Bin collection; E-waste accepted: Batteries and Lamps only,610063,1.33205938361655,103.722452883915,6,7
149,149,"BLK 221 BOON LAY PLACE, BOON LAY SHOPPING CENTRE, #02-200",Bin collection; E-waste accepted: Batteries and Lamps only,640221,1.34639604067888,103.712387719568,6,6
150,150,"NO. 1 JURONG WEST CENTRAL 2, JURONG POINT 1, #B1-09",Bin collection; E-waste accepted: Batteries and Lamps only,648886,1.3398301525794,103.70646088413,6,6
151,151,"BLK 502 WEST COAST DR, BLK 502 WEST COAST DR, #01-41",Bin collection; E-waste accepted: Batteries and Lamps only,120502,1.31188595555903,103.759080937631,5,9
152,152,"17 PETIR RD, HILLION MALL, #B2-67",Bin collection; E-waste accepted: Batteries and Lamps only,678278,1.37834971260866,103.76274117629,8,9
153,153,"21 CHOA CHU KANG AVE 4, LOT 1 SHOPPERS' MALL, #B1-03",Bin collection; E-waste accepted: Batteries and Lamps only,689812,1.38506835667563,103.744950384161,8,8
154,154,"1 CHOA CHU KANG GROVE, ITE COLLEGE WEST, BLOCK 1, LEVEL 3 FOOD CANOPY","Bin collection; E-waste accepted: ICT equipment, Batteries and Lamps only",688236,1.37502493396044,103.752112715995,8,9
155,155,"4 TAMPINES CENTRAL 5, TAMPINES MALL, #03-16/16A","Bin collection; E-waste accepted: ICT equipment, Batteries and Lamps only",529510,1.35267231590699,103.944387987324,7,19
156,156,"602A TAMPINES AVENUE 9, #01-01","Bin collection; E-waste accepted: ICT equipment, Batteries and Lamps only",521602,1.36113645470954,103.93742559472,7,19
157,157,"9 BISHAN PLACE, JUNCTION 8 SHOPPING CENTRE, #3-2","Bin collection; E-waste accepted: ICT equipment, Batteries and Lamps only",579837,1.35017242685302,103.848430082687,6,14
158,158,"3 HARBOUR DRIVE, PASIR PANJANG TERMINAL BUILDING 3","Bin collection; E-waste accepted: ICT equipment, Batteries and Lamps only",117404,1.27459998107058,103.790191441877,3,11
159,159,"8 CHANGI BUSINESS PARK AVE 1, #01-51 &, #02-51","Bin collection; E-waste accepted: ICT equipment, Batteries and Lamps only",486018,1.33491977308775,103.963653904182,6,20
160,160,"BLK 573 WOODLANDS DRIVE 16, #02-01",Bin collection; E-waste accepted: Batteries and Lamps only,730573,1.43109806887589,103.798507625095,10,11
161,161,"BLK 182 WOODLANDS ST 13, #01-01",Bin collection; E-waste accepted: Batteries and Lamps only,730182,1.4351589456523,103.776023346965,11,10
162,162,"BLK 25 GHIM MOH LINK, #01-11",Bin collection; E-waste accepted: Batteries and Lamps only,270025,1.30811885974155,103.786049387238,4,11
163,163,"BLK 122 ANG MO KIO AVE 3, #01-1753",Bin collection; E-waste accepted: Batteries and Lamps only,560122,1.37018859803198,103.843413235622,7,14
164,164,"BLK 233 ANG MO KIO AVE 3, #01-1168",Bin collection; E-waste accepted: Batteries and Lamps only,560233,1.36754924240467,103.83674063165,7,13
165,165,"BLK 352 CLEMENTI AVE 2, #01-91",Bin collection; E-waste accepted: Batteries and Lamps only,120352,1.31427859810327,103.771350564245,5,10
166,166,"BLK 544 JURONG WEST ST 42, #01-97",Bin collection; E-waste accepted: Batteries and Lamps only,640544,1.35239357898915,103.715759515182,7,7
167,167,"BLK 18 TECK WHYE LANE, #01-95",Bin collection; E-waste accepted: Batteries and Lamps only,680018,1.37829768231958,103.754071399254,8,9
168,168,"BLK 154A BUKIT BATOK WEST AVE 8, #01-01",Bin collection; E-waste accepted: Batteries and Lamps only,651154,1.34737179771512,103.743698108315,6,8
169,169,"BLK 547 SEGAR ROAD, #01-06",Bin collection; E-waste accepted: Batteries and Lamps only,670547,1.38824020983746,103.769575393265,8,10
170,170,"BLK 446 FAJAR RD, #01-01",Bin collection; E-waste accepted: Batteries and Lamps only,670446,1.38400582300801,103.771029605045,8,10
171,171,"BLK 440 BUKIT BATOK WEST AVE 8, #01-10",Bin collection; E-waste accepted: Batteries and Lamps only,650440,1.35572307969423,103.739303113535,7,8
172,172,"BLK 292 BUKIT BATOK EAST AVENUE 6, #01-02",Bin collection; E-waste accepted: Batteries and Lamps only,650292,1.34447135579337,103.755394621037,6,9
173,173,"BLK 202 MARSILING DRIVE, #01-138",Bin collection; E-waste accepted: Batteries and Lamps only,730202,1.44315120177467,103.775164786038,11,10
174,174,"NO.1 WOODLANDS ROADS, #01-07",Bin collection; E-waste accepted: Batteries and Lamps only,677899,1.38060512479732,103.760041590511,8,9
175,175,"200 UPP THOMSON RD, #B1-01",Bin collection; E-waste accepted: Batteries and Lamps only,574424,1.35184498416505,103.83605365678,7,13
176,176,"BLK 85 DAWSON ROAD, #01-01",Bin collection; E-waste accepted: Batteries and Lamps only,141085,1.29531965769669,103.809758599549,4,12
177,177,"BLK 420A CLEMENTI AVE 1, #01-01",Bin collection; E-waste accepted: Batteries and Lamps only,121420,1.30973330594899,103.768637303114,4,10
178,178,"5 CHANGI BUSINESS PARK CENTRAL 1, CHANGI CITY POINT, #01-56","Bin collection; E-waste accepted: ICT equipment, Batteries and Lamps only",486038,1.33432515600981,103.962389303195,6,20
179,179,8 ANG MO KIO INDUSTRIAL PARK 2,"Bin collection; E-waste accepted: ICT equipment, Batteries and Lamps only",569500,1.37189393393221,103.864574202325,8,15
180,180,"30 BUKIT BATOK STREET 31, HONG KAH NORTH CC","Bin collection; E-waste accepted: ICT equipment, Batteries and Lamps only",659440,1.35905888839505,103.749456841487,7,9
181,181,"17 PETIR ROAD, HILLION MALL, #B1-65","Bin collection; E-waste accepted: ICT equipment, Batteries and Lamps only",678278,1.37834971260866,103.76274117629,8,9
182,182,"71 SUNGEI KADUT DRIVE, GAIN CITY MEGASTORE @ SUNGEI KADUT","Bin collection; E-waste accepted: ICT equipment, Batteries and Lamps only",729577,1.41286385690526,103.74601574229,10,8
183,183,"83 PUNGGOL CENTRAL, WATERWAY POINT","Bin collection; E-waste accepted: ICT equipment, Batteries and Lamps only",828761,1.40653610720599,103.901988174009,9,17
184,184,"311 NEW UPPER CHANGI ROAD, BEDOK MALL, #B1-01/43/44","Bin collection; E-waste accepted: ICT equipment, Batteries and Lamps only",467360,1.32479360710739,103.929182078245,5,18
185,185,"3 SIMEI STREET 6, EASTPOINT MALL, #B1-08","Bin collection; E-waste accepted: ICT equipment, Batteries and Lamps only",528833,1.34270618643901,103.953024503826,6,20
186,186,"1 HOUGANG ST 91, HOUGANG 1, #2-01","Bin collection; E-waste accepted: ICT equipment, Batteries and Lamps only",538692,1.37584997338503,103.879300024096,8,16
187,187,"90 HOUGANG AVENUE 10, HOUGANG MALL, #02-13","Bin collection; E-waste accepted: ICT equipment, Batteries and Lamps only",538766,1.37231185642959,103.89366161203,8,17
188,188,"23 SERANGOON CENTRAL, NEX MALL, #03-42","Bin collection; E-waste accepted: ICT equipment, Batteries and Lamps only",556083,1.35043817177432,103.87170454945,6,15
189,189,"1 HILLVIEW RISE, HILLVIEW CC","Bin collection; E-waste accepted: ICT equipment, Batteries and Lamps only",667970,1.36196724402422,103.764266389757,7,9
190,190,"1 STADIUM PLACE LEVEL 1, WAVE MALL, #01-29","Bin collection; E-waste accepted: ICT equipment, Batteries and Lamps only",397628,1.30384326764684,103.872750711332,4,15
191,191,"81 CLEMENCEAU AVENUE, UE SQUARE, #02-15",Bin collection; E-waste accepted: Batteries and Lamps only,239917,1.29225958039889,103.842561025611,4,14
192,192,"238 THOMSON ROAD, NOVENA SQUARE, #01-28",Bin collection; E-waste accepted: Batteries and Lamps only,307683,1.32021099973819,103.843656770909,5,14
193,193,"68 ORCHARD ROAD, PLAZA SINGAPURA, #4-12","Bin collection; E-waste accepted: ICT equipment, Batteries and Lamps only",238839,1.30074770847155,103.845047580881,4,14
194,194,"30 SEMBAWANG DRIVE, SUN PLAZA, #2-06","Bin collection; E-waste accepted: ICT equipment, Batteries and Lamps only",757713,1.44822653184262,103.819462104528,11,12
195,195,"1 WOODLANDS SQUARE, CAUSEWAY POINT, #04-19/20","Bin collection; E-waste accepted: ICT equipment, Batteries and Lamps only",738099,1.43600784517148,103.785688739235,11,11
196,196,460 TOA PAYOH LORONG 6,"Bin collection; E-waste accepted: ICT equipment, Batteries and Lamps only",310460,1.3319945583363,103.849796103257,6,14
197,197,730 ANG MO KIO AVE 6,"Bin collection; E-waste accepted: ICT equipment, Batteries and Lamps only",560730,1.37343368369214,103.845765158161,8,14
198,198,"23 SERANGOON CENTRAL, NEX MALL, #02-49/50","Bin collection; E-waste accepted: ICT equipment, Batteries and Lamps only",556083,1.35043817177432,103.87170454945,6,15
199,199,"50 TAMPINES NORTH DRIVE 2, COURTS MEGASTORE","Bin collection; E-waste accepted: ICT equipment, Batteries and Lamps only",528766,1.37362335947781,103.933805897843,8,19
200,200,"53 ANG MO KIO AVE 3, ANG MO KIO HUB, #B2-40","Bin collection; E-waste accepted: ICT equipment, Batteries and Lamps only",569933,1.3692489128202,103.848399227484,7,14
201,201,"107 NORTH BRIDGE ROAD, FUNAN MALL, #03-19/20","Bin collection; E-waste accepted: ICT equipment, Batteries and Lamps only",179105,1.29124400033468,103.849984794935,4,14
202,202,"1 DEPOT CLOSE, HP ENTERPRISE","Bin collection; E-waste accepted: ICT equipment, Batteries and Lamps only",109841,1.28243134568209,103.805032356604,3,12
203,203,"101 THOMSON ROAD, UNITED SQUARE, #B1-56D/E","Bin collection; E-waste accepted: ICT equipment, Batteries and Lamps only",307591,1.31733462987407,103.843463185977,5,14
204,204,"105 CANBERRA ST, EAST BROOK @ CANBERRA, #02-05","Bin collection; E-waste accepted: ICT equipment, Batteries and Lamps only",750105,1.44885564521184,103.832409180973,11,13
205,205,365 COMMONWEALTH AVE,"Bin collection; E-waste accepted: ICT equipment, Batteries and Lamps only",149732,1.29915022797049,103.80130510766,4,11
206,206,400 LENGKOK BAHRU,"Bin collection; E-waste accepted: ICT equipment, Batteries and Lamps only",159049,1.28978711891653,103.81444834816,4,12
207,207,"1 JURONG WEST CENTRAL, JURONG POINT, #02-05","Bin collection; E-waste accepted: ICT equipment, Batteries and Lamps only",648886,1.3398301525794,103.70646088413,6,6
208,208,"90 HOUGANG AVENUE 10, HOUGANG MALL, #04-15","Bin collection; E-waste accepted: ICT equipment, Batteries and Lamps only",538766,1.37231185642959,103.89366161203,8,17
209,209,"1 JURONG WEST CENTRAL 2, JURONG POINT, #03-37","Bin collection; E-waste accepted: ICT equipment, Batteries and Lamps only",648886,1.3398301525794,103.70646088413,6,6
210,210,"33 SENGKANG WEST AVE, SELETAR MALL, #03-25","Bin collection; E-waste accepted: ICT equipment, Batteries and Lamps only",797653,1.39139305815613,103.876067657689,9,16
211,211,"176 ORCHARD ROAD, THE CENTREPOINT, #03-31","Bin collection; E-waste accepted: ICT equipment, Batteries and Lamps only",238843,1.30197836640112,103.839759027803,4,14
212,212,"23 SERANGOON CENTRAL, NEX MALL, #03-33/34","Bin collection; E-waste accepted: ICT equipment, Batteries and Lamps only",556083,1.35043817177432,103.87170454945,6,15
213,213,"31B EXETER ROAD, COMCENTRE","Bin collection; E-waste accepted: ICT equipment, Batteries and Lamps only",239733,1.29897549945424,103.83840640501,4,13
214,214,"1 JELEBU ROAD, BUKIT PANJANG PLAZA, #04-03","Bin collection; E-waste accepted: ICT equipment, Batteries and Lamps only",677743,1.38051732815914,103.763961852618,8,9
215,215,"450 TELOK BLANGAH STREET 31, TELOK BLANGAH CC","Bin collection; E-waste accepted: ICT equipment, Batteries and Lamps only",108943,1.27486265663736,103.807875435609,3,12
216,216,"27 SCIENCE DRIVE 1, KENT RIDGE CAMPUS, OUTSIDE LT27 AND LT29 STUDENT SPACE, LEVEL 1","Bin collection; E-waste accepted: ICT equipment, Batteries and Lamps only",117541,1.29546718054057,103.779773956451,4,10
217,217,"12 KENT RIDGE CRES, KENT RIDGE CAMPUS, CENTRAL LIBRARY FORUM SPACE, LEVEL 1","Bin collection; E-waste accepted: ICT equipment, Batteries and Lamps only",119275,1.29672886339029,103.773151759339,4,10
218,218,"2 COLLEGE AVE WEST, UTOWN - STEPHEN RIADY CENTRE, LEVEL 1 IN FRONT OF WAACOW RESTAURANT","Bin collection; E-waste accepted: ICT equipment, Batteries and Lamps only",138607,1.30477687700985,103.772396246249,4,10
219,219,300 WHAMPOA DRIVE,"Bin collection; E-waste accepted: ICT equipment, Batteries and Lamps only",327737,1.32463959408329,103.856979169641,5,14
220,220,6 POTONG PASIR AVENUE 2,"Bin collection; E-waste accepted: ICT equipment, Batteries and Lamps only",358361,1.33253591154285,103.86703683934,6,15
221,221,"11 BEDOK NORTH STREET 1, MAIN ATRIUM","Bin collection; E-waste accepted: ICT equipment, Batteries and Lamps only",469662,1.32698498848449,103.931620621577,5,19
222,222,1 TAMPINES WALK,"Bin collection; E-waste accepted: ICT equipment, Batteries and Lamps only",528523,1.35349615471813,103.939683594446,7,19
223,223,25 INTERNATIONAL BUSINESS PARK,"Bin collection; E-waste accepted: ICT equipment, Batteries and Lamps only",609916,1.32519950719568,103.746377198218,5,8
224,224,12 MARINA BOULEVARD,"Bin collection; E-waste accepted: ICT equipment, Batteries and Lamps only",18982,1.27910566824918,103.854297426525,3,14
225,225,"8A MARINA BOULEVARD, #B2-10","Bin collection; E-waste accepted: ICT equipment, Batteries and Lamps only",18984,1.28023825346251,103.853369669154,3,14
226,226,18 CROSS STREET,"Bin collection; E-waste accepted: ICT equipment, Batteries and Lamps only",48423,1.28351521183249,103.846878912631,3,14
227,227,"1 RAFFLES QUAY, #B2","Bin collection; E-waste accepted: ICT equipment, Batteries and Lamps only",48583,1.28089477091411,103.851677108516,3,14
228,228,"50 JURONG GATEWAY ROAD, JEM, #04-01","Bin collection; E-waste accepted: ICT equipment, Batteries and Lamps only",608549,1.33320021038331,103.743170436292,6,8
229,229,"BLK 785E WOODLANDS RISE, #01-01",Bin collection; E-waste accepted: Batteries and Lamps only,735785,1.44679887813048,103.805489778956,11,12
230,230,"876 WOODLANDS STREET 83, WOODLANDS ZONE 3 RN","Bin collection; E-waste accepted: ICT equipment, Batteries and Lamps only",730876,1.44479629224386,103.790602762447,11,11
231,231,"1 WOODLANDS STREET 81, WOODLANDS CC","Bin collection; E-waste accepted: ICT equipment, Batteries and Lamps only",738526,1.43973033862036,103.788235404817,11,11
232,232,"1 WOODLANDS STREET 31, FUCHUN CC","Bin collection; E-waste accepted: ICT equipment, Batteries and Lamps only",738581,1.42952981919595,103.774811855067,10,10
233,233,"31 WOODLANDS AVENUE 6, WOODLANDS GALAXY CC","Bin collection; E-waste accepted: ICT equipment, Batteries and Lamps only",738991,1.43904160690114,103.802610984283,11,11
234,234,"120 WOODLANDS AVENUE 1, ACE THE PLACE CC","Bin collection; E-waste accepted: ICT equipment, Batteries and Lamps only",739069,1.42749277602918,103.792240772323,10,11
235,235,"1 NORTHPOINT DRIVE NEE SOON CENTRAL COMMUNITY CLUB, NEE SOON CENTRAL CC","Bin collection; E-waste accepted: ICT equipment, Batteries and Lamps only",768019,1.42803584532257,103.836092102185,10,13
236,236,"30 YISHUN STREET 81, NEE SOON SOUTH CC","Bin collection; E-waste accepted: ICT equipment, Batteries and Lamps only",768455,1.4151749664221,103.834693130803,10,13
237,237,"1 YISHUN AVENUE 9, NEE SOON EAST CC","Bin collection; E-waste accepted: ICT equipment, Batteries and Lamps only",768893,1.43102087212489,103.838488083545,10,13
238,238,"278 MARINE PARADE ROAD, MARINE PARADE CC","Bin collection; E-waste accepted: ICT equipment, Batteries and Lamps only",449282,1.30482859822658,103.9095452826,4,17
239,239,"10 SIMEI AVE, ITE COLLEGE EAST, #B1-14","Bin collection; E-waste accepted: ICT equipment, Batteries and Lamps only",486047,1.33455404275229,103.954985037641,6,20
240,240,"21 TAMPINES AVENUE 1, TEMASEK POLYTECHHIC","Bin collection; E-waste accepted: ICT equipment, Batteries and Lamps only",529757,1.34793947802841,103.928839989349,6,18
241,241,"3 TEMASEK BOULEVARD, SUNTEC CITY MALL, #01-634","Bin collection; E-waste accepted: ICT equipment, Batteries and Lamps only",38983,1.29487904117328,103.857675497949,4,15
242,242,"750B CHAI CHEE ROAD #01-01 TO 06, TO 12, #02-02 TO 06 BUSINESS PARK, #01-09","Bin collection; E-waste accepted: ICT equipment, Batteries and Lamps only",469002,1.32315929186444,103.920979982361,5,18
243,243,"10 ANSON ROAD, INTERNATIONAL PLAZA, #36-05","Bin collection; E-waste accepted: ICT equipment, Batteries and Lamps only",79903,1.27573568080889,103.845703220386,3,14
244,244,"10 DOVER DRIVE, SIT @ DOVER","Bin collection; E-waste accepted: ICT equipment, Batteries and Lamps only",138683,1.3010087280189,103.780125253594,4,10
245,245,"1 ROCHOR CANAL RD, SIM LIM SQUARE","Bin collection; E-waste accepted: ICT equipment, Batteries and Lamps only",188504,1.30302298258031,103.852875624824,4,14
246,246,"2 HANDY RD, THE CATHAY","Bin collection; E-waste accepted: ICT equipment, Batteries and Lamps only",229233,1.29918373003642,103.847789789234,4,14
247,247,2 ANG MO KIO DRIVE,"Bin collection; E-waste accepted: ICT equipment, Batteries and Lamps only",567720,1.37789203173292,103.856411986641,8,14
248,248,"293 HOLLAND ROAD, JELITA SHOPPING CENTRE, #01-01",Bin collection; E-waste accepted: Batteries and Lamps only,278628,1.31756196654772,103.785840623813,5,11
249,249,"101 THOMSON ROAD, UNITED SQUARE, #B1-29",Bin collection; E-waste accepted: Batteries and Lamps only,307591,1.31733462987407,103.843463185977,5,14
250,250,"230 VICTORIA STREET, BUGIS JUNCTION, #B1-17",Bin collection; E-waste accepted: Batteries and Lamps only,188021,1.299112870967,103.855411182582,4,14
251,251,"1 FIFTH AVENUE, GUTHRIE HOUSE, #01-05",Bin collection; E-waste accepted: Batteries and Lamps only,268802,1.33081740087425,103.795692355521,6,11
252,252,"1 STAMFORD ROAD, RAFFLES CITY SHOPPING CENTRE, #B1-01",Bin collection; E-waste accepted: Batteries and Lamps only,179103,1.29376027875418,103.852768332387,4,14
253,253,"501 BUKIT TIMAH ROAD, CLUNY COURT, #01-02",Bin collection; E-waste accepted: Batteries and Lamps only,259760,1.32257316960795,103.814245550689,5,12
254,254,"154 WEST COAST ROAD, WEST COAST PLAZA, #B1-19",Bin collection; E-waste accepted: Batteries and Lamps only,127371,1.30358268148237,103.765284520206,4,9
255,255,"1 KIM SENG PROMENADE, GREAT WORLD CITY, #B1-18",Bin collection; E-waste accepted: Batteries and Lamps only,237994,1.29380234644511,103.83175791999,4,13
256,256,"1 VISTA EXCHANGE GREEN, THE STAR VISTA, #B1-02",Bin collection; E-waste accepted: Batteries and Lamps only,138617,1.3068488176344,103.788214531337,4,11
257,257,"4 HILLVIEW RISE, HILLVIEW MARKET PLACE, #02-07",Bin collection; E-waste accepted: Batteries and Lamps only,667979,1.36267450617912,103.764172923137,7,9
258,258,"12  KALLANG AVE, APERIA, #01-47",Bin collection; E-waste accepted: Batteries and Lamps only,339511,1.30974241289377,103.864101648717,4,15
259,259,"1 SENGKANG SQUARE, COMPASS ONE, #B1-25",Bin collection; E-waste accepted: Batteries and Lamps only,545078,1.39209415018227,103.894980032554,9,17
260,260,"1 FUSIONOPOLIS WAY, ONE NORTH, #B2-03",Bin collection; E-waste accepted: Batteries and Lamps only,138632,1.29929405573076,103.787404060926,4,11
261,261,"930 YISHUN AVENUE 2, NORTHPOINT CITY, SOUTH WING, #B1-136/138","Bin collection; E-waste accepted: ICT equipment, Batteries and Lamps only",769098,1.42969847969486,103.835776496688,10,13
262,262,"1 HARBOURFRONT WALK, VIVOCITY, #2-07","Bin collection; E-waste accepted: ICT equipment, Batteries and Lamps only",98585,1.2638958023183,103.821589254908,2,13
263,263,"1 HARBOURFRONT WALK, VIVOCITY, #B2-23","Bin collection; E-waste accepted: ICT equipment, Batteries and Lamps only",98585,1.2638958023183,103.821589254908,2,13
264,264,"3155 COMMONWEALTH AVENUE WEST, THE CLEMENTI MALL, #04-46/47/48/49","Bin collection; E-waste accepted: ICT equipment, Batteries and Lamps only",129588,1.31485321802259,103.764248205662,5,9
265,265,"9 WOODLANDS AVENUE 9, REPUBLIC POLYTECHNIC","Bin collection; E-waste accepted: ICT equipment, Batteries and Lamps only",738964,1.44627224974557,103.783228728956,11,10
266,266,"598 YISHUN RING RD, WISTERIA MALL","Bin collection; E-waste accepted: ICT equipment, Batteries and Lamps only",768698,1.41799925556566,103.841236459776,10,14
267,267,"681 PUNGGOL DRIVE, OASIS TERRACES","Bin collection; E-waste accepted: ICT equipment, Batteries and Lamps only",820681,1.40287845319493,103.913195748836,9,18
268,268,"107 NORTH BRIDGE ROAD, FUNAN, #03-01","Manned collection; E-waste accepted: ICT equipment, Batteries and Lamps only",179105,1.29124400033468,103.849984794935,4,14
269,269,"228 ORCHARD ROAD, COURTS ORCHARD","Manned collection; E-waste accepted: ICT equipment, Batteries and Lamps only",238853,1.30185487652123,103.83848662393,4,13
270,270,"205 UPPER BUKIT TIMAH ROAD, SIM LIAN BUILDING","Manned collection; E-waste accepted: ICT equipment, Batteries and Lamps only",588181,1.34449154991689,103.774321072771,6,10
271,271,"451 CLEMENTI AVE 3, COURTS CLEMENTI, #01-309","Manned collection; E-waste accepted: ICT equipment, Batteries and Lamps only",120451,1.31248108236843,103.765476504358,5,9
272,272,"21 CHOA CHU KANG AVE 4, LOT ONE, #03-01","Manned collection; E-waste accepted: ICT equipment, Batteries and Lamps only",689812,1.38506835667563,103.744950384161,8,8
273,273,"2 BAYFRONT AVENUE, MBS, B2-06",Manned collection; E-waste accepted: ICT equipment and Batteries only,18972,1.28332249304312,103.857629113441,3,15
274,274,"270 ORCHARD ROAD, APPLE ORCHARD",Manned collection; E-waste accepted: ICT equipment and Batteries only,238857,1.30310525131104,103.836202012782,4,13
275,275,"78 AIRPORT BOULEVARD, JEWEL, #02-234",Manned collection; E-waste accepted: ICT equipment and Batteries only,819666,1.36034099671656,103.989077555194,7,22
276,276,146 TECK WHYE LANE,"Bin collection; E-waste accepted: ICT equipment, Batteries and Lamps only",680146,1.3811166761303,103.752527098063,8,9
277,277,"24 RAFFLES PLACE, CLIFFORD CENTRE","Bin collection; E-waste accepted: ICT equipment, Batteries and Lamps only",48621,1.28385698132703,103.852128172968,3,14
278,278,"611 WOODLANDS RING ROAD, WOODLANDS ZONE 7 RN","Bin collection; E-waste accepted: ICT equipment, Batteries and Lamps only",730611,1.43542608539826,103.796998851606,11,11
279,279,"638 WOODLANDS RING ROAD, WOODLANDS ZONE 8 RN","Bin collection; E-waste accepted: ICT equipment, Batteries and Lamps only",730638,1.43671737846592,103.803192516442,11,11
280,280,"656 WOODLANDS RING ROAD, WOODLANDS ZONE 9 RN","Bin collection; E-waste accepted: ICT equipment, Batteries and Lamps only",730656,1.43698595559977,103.799117869578,11,11
281,281,"846 WOODLANDS AVENUE 4, WOODLANDS ZONE 2 RN","Bin collection; E-waste accepted: ICT equipment, Batteries and Lamps only",730846,1.44330259673776,103.793474578196,11,11
282,282,"862 WOODLANDS STREET 83, WOODLANDS ZONE 4 RN, #01-184","Bin collection; E-waste accepted: ICT equipment, Batteries and Lamps only",730862,1.43995507442934,103.795048911761,11,11
283,283,"302 TIONG BAHRU ROAD, TIONG BAHRU PLAZA, #3-19","Bin collection; E-waste accepted: ICT equipment, Batteries and Lamps only",168732,1.28646345318688,103.826935084287,3,13
284,284,"68 ORCHARD ROAD, PLAZA SINGAPURA, #3-39","Bin collection; E-waste accepted: ICT equipment, Batteries and Lamps only",238839,1.30074770847155,103.845047580881,4,14
285,285,"68 ORCHARD ROAD, PLAZA SINGAPURA, #1-36","Bin collection; E-waste accepted: ICT equipment, Batteries and Lamps only",238839,1.30074770847155,103.845047580881,4,14
286,286,135 JURONG GATEWAY ROAD,"Bin collection; E-waste accepted: ICT equipment, Batteries and Lamps only",600135,1.33375343199036,103.739371389964,6,8
287,287,"2 JURONG EAST STREET 21, IMM, #3-33","Bin collection; E-waste accepted: ICT equipment, Batteries and Lamps only",609601,1.33489843717476,103.7467344968,6,8
288,288,"63 JURONG WEST CENTRAL 3, JURONG POINT, #B1-92","Bin collection; E-waste accepted: ICT equipment, Batteries and Lamps only",648331,1.33931503396417,103.705351000578,6,6
289,289,"63 JURONG WEST CENTRAL 3, JURONG POINT, #03-01","Bin collection; E-waste accepted: ICT equipment, Batteries and Lamps only",648331,1.33931503396417,103.705351000578,6,6
290,290,"1 JURONG WEST CENTRAL 2, JURONG POINT, #B1-94","Bin collection; E-waste accepted: ICT equipment, Batteries and Lamps only",648886,1.3398301525794,103.70646088413,6,6
291,291,"6 RAFFLES BOULEVARD, MARINA SQUARE, #03 - 223 / 232","Bin collection; E-waste accepted: ICT equipment, Batteries and Lamps only",39594,1.29145525906521,103.857007341008,4,14
292,292,"109 NORTH BRIDGE ROAD, FUNAN, #3-16","Bin collection; E-waste accepted: ICT equipment, Batteries and Lamps only",179097,1.29114627294634,103.849834212162,4,14
293,293,"200 VICTORIA STREET, BUGIS JUNCTION, #3-10E","Bin collection; E-waste accepted: ICT equipment, Batteries and Lamps only",188021,1.299112870967,103.855411182582,4,14
294,294,"1 KIM SENG PROMENADE, GREAT WORLD CITY, #07-01","Bin collection; E-waste accepted: ICT equipment, Batteries and Lamps only",237994,1.29380234644511,103.83175791999,4,13
295,295,"80 MARINE PARADE ROAD, PARKWAY PARADE, #02-34","Bin collection; E-waste accepted: ICT equipment, Batteries and Lamps only",449269,1.30119130748691,103.905113592255,4,17
296,296,"10 PAYA LEBAR ROAD, PAYA LEBAR QUARTER(PLQ), #4-01","Bin collection; E-waste accepted: ICT equipment, Batteries and Lamps only",409057,1.31752384126856,103.892724434212,5,16
297,297,"80 MARINE PARADE RD, PARKWAY PARADE, #3-28","Bin collection; E-waste accepted: ICT equipment, Batteries and Lamps only",449269,1.30119130748691,103.905113592255,4,17
298,298,510 TAMPINES CENTRAL 1,"Bin collection; E-waste accepted: ICT equipment, Batteries and Lamps only",520510,1.35480107846676,103.944458093925,7,19
299,299,"4 TAMPINES CENTRAL 5, TAMPINES CENTRAL, #2-27","Bin collection; E-waste accepted: ICT equipment, Batteries and Lamps only",529510,1.35267231590699,103.944387987324,7,19
300,300,"10 TAMPINES CENTRAL 1, TAMPINES 1, #4-25","Bin collection; E-waste accepted: ICT equipment, Batteries and Lamps only",529536,1.35431555986081,103.945019461564,7,19
301,301,"10 TAMPINES CENTRAL 1, TAMPINES 1, #B1-09","Bin collection; E-waste accepted: ICT equipment, Batteries and Lamps only",529536,1.35431555986081,103.945019461564,7,19
302,302,475 CHOA CHU KANG AVENUE 3,"Bin collection; E-waste accepted: ICT equipment, Batteries and Lamps only",680475,1.3780561421762,103.738931802142,8,8
303,303,"2 CHOA CHU KANG LOOP, KEAT HONG CC","Bin collection; E-waste accepted: ICT equipment, Batteries and Lamps only",689687,1.38406515926541,103.744923812722,8,8
304,304,180 KITCHENER ROAD,"Bin collection; E-waste accepted: ICT equipment, Batteries and Lamps only",208539,1.31130516479714,103.856421771906,5,14
305,305,1 SENGKANG SQUARE,"Bin collection; E-waste accepted: ICT equipment, Batteries and Lamps only",545078,1.39209415018227,103.894980032554,9,17
306,306,"900 SOUTH WOODLANDS DRIVE, WOODLANDS CIVIC CENTRE, #B1-01",Bin collection; E-waste accepted: Batteries and Lamps only,730900,1.43507788583776,103.786619621971,11,11
307,307,"BLK 888 WOODLANDS DR 50, #01-757",Bin collection; E-waste accepted: Batteries and Lamps only,730888,1.43767919710846,103.795136736247,11,11
308,308,"BLK 676 WOODLANDS DR 71, KAMPUND ADMIRALTY, #B1-02",Bin collection; E-waste accepted: Batteries and Lamps only,730676,1.43977701137209,103.800573465174,11,11
309,309,"71 WOODLANDS AVE 3, MARSLING MRT, #01-01",Bin collection; E-waste accepted: Batteries and Lamps only,739044,1.43262603029887,103.774051203192,11,10
310,310,"BLK 712 ANG MO KIO AVE 6, BLK 712 ANG MO KIO, #01-4056",Bin collection; E-waste accepted: Batteries and Lamps only,560712,1.37140920643065,103.847082884002,8,14
311,311,"BLK 510 BISHAN ST 13, #01-520",Bin collection; E-waste accepted: Batteries and Lamps only,570510,1.34888843913816,103.849691988212,6,14
312,312,"880 TAMPINES AVENUE 8, TAMPINES SPRING RN","Bin collection; E-waste accepted: ICT equipment, Batteries and Lamps only",520880,1.35132607390816,103.931478811435,7,19
313,313,"124 TAMPINES STREET 11, TAMPINES CHANGKAT ZONE 5 RC","Bin collection; E-waste accepted: ICT equipment, Batteries and Lamps only",521124,1.34518427892421,103.949793334969,6,20
314,314,"ANG MO KIO AVENUE 8, NANYANG POLYTECHNIC, BLOCK E (NORTH CANTEEN)","Bin collection; E-waste accepted: ICT equipment, Batteries and Lamps only",569830,1.38034090667762,103.848083335838,8,14
315,315,"301 UPPER THOMSON ROAD, THOMSON PLAZA","Bin collection; E-waste accepted: ICT equipment, Batteries and Lamps only",574408,1.3546690188205,103.83091978573,7,13
316,316,"535 CLEMENTI ROAD, NGEE ANN POLYCLINIC, BLK 22","Bin collection; E-waste accepted: ICT equipment, Batteries and Lamps only",599489,1.3327625965271,103.771562462036,6,10
317,317,"1 CLUNY ROAD, NATIONAL PARKS BOARD HQ, SINGAPORE BOTANIC GARDENS","Bin collection; E-waste accepted: ICT equipment, Batteries and Lamps only",259569,1.31347941588508,103.813180045951,5,12
318,318,"7 JURONG WEST AVE 5, #01-01",Bin collection; E-waste accepted: Batteries and Lamps only,649486,1.34878489184957,103.703415660179,6,6
319,319,"200 WOODLANDS INDUSTRIAL PARK E7, #01-30",Bin collection; E-waste accepted: Batteries and Lamps only,757177,1.45074972447127,103.796846522878,11,11
320,320,"BLK 88 TANGLIN HALT ROAD, #01-10",Bin collection; E-waste accepted: Batteries and Lamps only,141088,1.30203801734289,103.798021748872,4,11
321,321,"19 SERANGOON NORTH AVE 5, #01-01",Bin collection; E-waste accepted: Batteries and Lamps only,554913,1.37563499622553,103.871996421774,8,15
322,322,"3 YUAN CHING RD, #01-01A/02",Bin collection; E-waste accepted: Batteries and Lamps only,618642,1.32546807053288,103.725221540647,5,7
323,323,"BLK 301 WOODLANDS ST 31, #01-217",Bin collection; E-waste accepted: Batteries and Lamps only,730301,1.43150526507051,103.773515660456,10,10
324,324,"BLK 61 TEBAN GARDENS RD, #01-21",Bin collection; E-waste accepted: Batteries and Lamps only,600061,1.32213635836523,103.738292805557,5,8
325,325,"BLK 52 CHIN SWEE RD, #01-25",Bin collection; E-waste accepted: Batteries and Lamps only,160052,1.28708277772418,103.841580116173,3,14
326,326,40 SCOTTS ROAD,"Bin collection; E-waste accepted: ICT equipment, Batteries and Lamps only",228231,1.31056745258169,103.83610405607,5,13
327,327,180 BEDOK RESERVOIR ROAD,"Bin collection; E-waste accepted: ICT equipment, Batteries and Lamps only",479220,1.33255277788544,103.91514355252,6,18
328,328,2 TAMPINES STREET 41,"Bin collection; E-waste accepted: ICT equipment, Batteries and Lamps only",529204,1.35736478775974,103.946602685067,7,19
329,329,13 TAMPINES STREET 11,"Bin collection; E-waste accepted: ICT equipment, Batteries and Lamps only",529453,1.3458133461735,103.947687834643,6,20
330,330,207 HOUGANG STREET 21,"Bin collection; E-waste accepted: ICT equipment, Batteries and Lamps only",530207,1.35779860505296,103.886092082636,7,16
331,331,"391A ORCHARD ROAD, NGEE ANN CITY TOWER A","Bin collection; E-waste accepted: ICT equipment, Batteries and Lamps only",238873,1.30242416552881,103.834676129269,4,13
332,332,"BLK 628 SENJA RD, SENJA GRAND, #01-01",Bin collection; E-waste accepted: Batteries and Lamps only,670628,1.38509602280679,103.760218442452,8,9
333,333,"BLK 140 TECK WHYE LANE, #01-351",Bin collection; E-waste accepted: Batteries and Lamps only,680140,1.38003057945933,103.753118413925,8,9
334,334,"10 BUKIT BATOK CENTRAL, #01-08",Bin collection; E-waste accepted: Batteries and Lamps only,659958,1.34871080233675,103.749334517405,6,8
335,335,"BLK 345 JURONG EAST ST 31, #01-29",Bin collection; E-waste accepted: Batteries and Lamps only,600345,1.34551209415107,103.731219147651,6,7
336,336,"9 BISHAN PLACE, JUNCTION 8 SHOPPING CENTRE, #B1-01",Bin collection; E-waste accepted: Batteries and Lamps only,579837,1.35017242685302,103.848430082687,6,14
337,337,"NO. 1 JELEBU RD, BUKIT PANJANG PLAZA, #01-15 & #02-20",Bin collection; E-waste accepted: Batteries and Lamps only,677743,1.38051732815914,103.763961852618,8,9
338,338,"61 CHOA CHU KANG DR, YEW TEE MRT STATION, #01-01",Bin collection; E-waste accepted: Batteries and Lamps only,689715,1.39712886014404,103.747329719197,9,8
339,339,"3155 COMMONWEALTH AVENUE WEST, THE CLEMENTI MALL, #B1-12",Bin collection; E-waste accepted: Batteries and Lamps only,129588,1.31485321802259,103.764248205662,5,9
340,340,"1 MAJU AVE, SERANGOON GARDEN VILLAGE, #B1-11",Bin collection; E-waste accepted: Batteries and Lamps only,556679,1.36516070778275,103.865041855148,7,15
341,341,"NO. 1 JLN ANAK BUKIT, BUKIT TIMAH PLAZA, #B1-01 & #B2-01",Bin collection; E-waste accepted: Batteries and Lamps only,588996,1.33865676913061,103.778560470199,6,10
342,342,"301 UPPER THOMSON RD, THOMSON PLAZA, #03-37/38",Bin collection; E-waste accepted: Batteries and Lamps only,574408,1.3546690188205,103.83091978573,7,13
343,343,"5 STADIUM WALK, KALLANG LIESURE PARK, #B1-01",Bin collection; E-waste accepted: Batteries and Lamps only,397693,1.30222177114752,103.876152670397,4,16
344,344,"720  CLEMENTI WEST ST 2, #01-144","Bin collection; E-waste accepted: ICT equipment, Batteries and Lamps only",120720,1.30246408379367,103.763750976116,4,9
345,345,"451 BUKIT BATOK WEST AVENUE 6, #01-10","Bin collection; E-waste accepted: ICT equipment, Batteries and Lamps only",650451,1.35303717544773,103.74394257144,7,8
346,346,"118 ALJUNIED AVE 2, #01-100","Bin collection; E-waste accepted: ICT equipment, Batteries and Lamps only",380118,1.32000040191606,103.887363067673,5,16
347,347,"209 NEW UPPER CHANGI RD, #01-631","Bin collection; E-waste accepted: ICT equipment, Batteries and Lamps only",460209,1.32463572606471,103.931068835678,5,19
348,348,10 SERANGOON NORTH AVENUE 2,"Bin collection; E-waste accepted: ICT equipment, Batteries and Lamps only",555877,1.37005486240283,103.873927617452,7,15
349,349,50 ANG MO KIO STREET 61,"Bin collection; E-waste accepted: ICT equipment, Batteries and Lamps only",569163,1.38151727157775,103.841428124035,8,14
350,350,ANG MO KIO AVENUE 10,"Bin collection; E-waste accepted: ICT equipment, Batteries and Lamps only",569734,1.36308867917974,103.853536076665,7,14
351,351,ANG MO KIO AVENUE 4,"Bin collection; E-waste accepted: ICT equipment, Batteries and Lamps only",569897,1.37300749906274,103.83761242449,8,13
352,352,ANG MO KIO AVENUE 1,"Bin collection; E-waste accepted: ICT equipment, Batteries and Lamps only",569976,1.36683348076669,103.840668130336,7,14
353,353,"200 TURF CLUB ROAD DBS THE GRANDSTAND, THE GRANDSTAND (TURF CITY)","Bin collection; E-waste accepted: ICT equipment, Batteries and Lamps only",287994,1.33899462699318,103.793133806944,6,11
354,354,"AH HOOD ROAD, ZHONGSHAN MALL","Bin collection; E-waste accepted: ICT equipment, Batteries and Lamps only",329984,1.32702990626384,103.846490874615,5,14
355,355,"565 PASIR RIS ST 51, REPAIR KOPITIAM","Bin collection; E-waste accepted: ICT equipment, Batteries and Lamps only",510565,1.36882713078143,103.950296247759,7,20
356,356,"285 TAMPINES STREET 22, TAMPINES CHANGKAT ZONE 4 RC","Bin collection; E-waste accepted: ICT equipment, Batteries and Lamps only",520285,1.35001073882934,103.952816065919,6,20
357,357,"364 TAMPINES STREET 34, TAMPINES CHANGKAT ZONE 8 RC","Bin collection; E-waste accepted: ICT equipment, Batteries and Lamps only",520364,1.35693800555856,103.959873499831,7,20
358,358,"430 TAMPINES STREET 41, TAMPINES NORTH ZONE 3 RC","Bin collection; E-waste accepted: ICT equipment, Batteries and Lamps only",520430,1.35955258017468,103.950148200773,7,20
359,359,"730 TAMPINES STREET 71, TAMPINES COURTVIEW RC","Bin collection; E-waste accepted: ICT equipment, Batteries and Lamps only",520730,1.35670605826191,103.933499184206,7,19
360,360,"736 TAMPINES STREET 72, TAMPINES GREENVALE RC","Bin collection; E-waste accepted: ICT equipment, Batteries and Lamps only",520736,1.35904159378304,103.934383364035,7,19
361,361,"842 TAMPINES STREET 82, TAMPINES VILLE RN","Bin collection; E-waste accepted: ICT equipment, Batteries and Lamps only",520842,1.35173850438617,103.935952394886,7,19
362,362,"ANG MO KIO DRIVE, #A1-12","Bin collection; E-waste accepted: ICT equipment, Batteries and Lamps only",567720,1.37789203173292,103.856411986641,8,14
363,363,"108 DEPOT ROAD, DEPOT HEIGHTS SHOPPING CENTRE","Bin collection; E-waste accepted: ICT equipment, Batteries and Lamps only",100108,1.28112226404962,103.810031318703,3,12
364,364,"7 WALLICH STREET, GUOCO TOWER","Bin collection; E-waste accepted: ICT equipment, Batteries and Lamps only",78884,1.27672492300406,103.845155402476,3,14
365,365,"1 BUKIT BATOKÂ CENTRAL LINK, #3-01",Bin collection; E-waste accepted: Ink and toner cartridges,658713,1.35018915982967,103.749021980031,6,8
366,366,"1 JELEBU ROAD, #4-04 & 16/17",Bin collection; E-waste accepted: Ink and toner cartridges,677743,1.38051732815914,103.763961852618,8,9
367,367,4300 ANG MO KIOÂ AVENUE 6,Bin collection; E-waste accepted: Ink and toner cartridges,569842,1.37479009534678,103.845580700883,8,14
368,368,"11 BEDOK NORTH STREET 1, #2-03 & #3-04",Bin collection; E-waste accepted: Ink and toner cartridges,469662,1.32698498848449,103.931620621577,5,19
369,369,"5 BISHANÂ PLACE, #1-01",Bin collection; E-waste accepted: Ink and toner cartridges,579841,1.34985304885287,103.848843026999,6,14
370,370,"90 HOUGANG AVENUE, #3-11",Bin collection; E-waste accepted: Ink and toner cartridges,538766,1.37231185642959,103.89366161203,8,17
371,371,"21 CHOA CHU KANG AVE 4, #4-01/02",Bin collection; E-waste accepted: Ink and toner cartridges,689812,1.38506835667563,103.744950384161,8,8
372,372,"3155 COMMONWEALTH AVENUE WEST, #5-13/14/15",Bin collection; E-waste accepted: Ink and toner cartridges,129588,1.31485321802259,103.764248205662,5,9
373,373,50 GEYLANG EASTÂ AVE 1,Bin collection; E-waste accepted: Ink and toner cartridges,389777,1.3174429839463,103.885837275913,5,16
374,374,21 JURONG EAST CENTRAL 1,Bin collection; E-waste accepted: Ink and toner cartridges,609732,1.33288484168537,103.739490178697,6,8
375,375,"60 JURONG WEST CENTRAL 3, #1-03",Bin collection; E-waste accepted: Ink and toner cartridges,648346,1.34046956412475,103.704452685304,6,6
376,376,"278 MARINE PARADEÂ ROAD, #1-02",Bin collection; E-waste accepted: Ink and toner cartridges,449282,1.30482859822658,103.9095452826,4,17
377,377,100 VICTORIA STREET,Bin collection; E-waste accepted: Ink and toner cartridges,188064,1.297489753102,103.853942302347,4,14
378,378,"1 TAMPINES WALK, #2-01",Bin collection; E-waste accepted: Ink and toner cartridges,528523,1.35349615471813,103.939683594446,7,19
379,379,6 TOA PAYOH CENTRAL,Bin collection; E-waste accepted: Ink and toner cartridges,319191,1.33352076184374,103.85049180316,6,14
380,380,53 MARGARET DRIVE,Bin collection; E-waste accepted: Ink and toner cartridges,149297,1.29864021099395,103.805430802302,4,12
381,381,"900 SOUTHÂ WOODLANDSÂ DRIVE, #1-03",Bin collection; E-waste accepted: Ink and toner cartridges,730900,1.43507788583776,103.786619621971,11,11
382,382,"930 YISHUN AVE 2, #4-01",Bin collection; E-waste accepted: Ink and toner cartridges,769098,1.42969847969486,103.835776496688,10,13
383,383,"1 SENGKANG SQUARE & COMPASS ONE, #3-28 / #4-19",Bin collection; E-waste accepted: Ink and toner cartridges,545078,1.39209415018227,103.894980032554,9,17
384,384,"23 SERANGOONÂ CENTRAL, #4-82/83",Bin collection; E-waste accepted: Ink and toner cartridges,556083,1.35043817177432,103.87170454945,6,15
385,385,"30 SEMBAWANG DRIVE, #5-01",Bin collection; E-waste accepted: Ink and toner cartridges,757713,1.44822653184262,103.819462104528,11,12
386,386,"8 RAFFLES AVENUE, #3-01",Bin collection; E-waste accepted: Ink and toner cartridges,39802,1.2895095530213,103.855665762299,3,14
